51624,ONEWEB-0415,2022,109.89,148.0,+,87.9,Active,1,LEO,French Guiana,UK,Commercial,Communications,Soyuz,1 51624U 22012C   24265.47152109  .00000704  00000+0  19806-2 0  9999,2 51624  87.8974 162.3983 0002162  73.2084 286.9281 13.10376093126299,13.10376093,0.0002162,LEO
51625,ONEWEB-0416,2022,109.89,148.0,+,87.9,Active,1,LEO,French Guiana,UK,Commercial,Communications,Soyuz,1 51625U 22012D   24265.48314539  .00000620  00000+0  17399-2 0  9990,2 51625  87.8982 162.3963 0001792  71.8926 288.2397 13.10379785126333,13.10379785,0.0001792,LEO
51626,ONEWEB-0422,2022,109.29,148.0,+,87.91,Active,1,LEO,French Guiana,UK,Commercial,Communications,Soyuz,1 51626U 22012E   24265.38780233  .00000060  00000+0  12229-3 0  9994,2 51626  87.9123 132.1016 0001698 106.3899 253.7419 13.17571332130341,13.17571332,0.0001698,LEO
51627,ONEWEB-0423,2022,109.29,148.0,+,87.91,Active,1,LEO,French Guiana,UK,Commercial,Communications,Soyuz,1 51627U 22012F   24265.91284459 -.00000010  00000+0 -58741-4 0  9990,2 51627  87.9128 131.9996 0001572  79.6893 280.4416 13.17611556131593,13.17611556,0.0001572,LEO
51628,ONEWEB-0425,2022,109.89,148.0,+,87.9,Active,1,LEO,French Guiana,UK,Commercial,Communications,Soyuz,1 51628U 22012G   24265.41673696  .00000232  00000+0  62924-3 0  9992,2 51628  87.8978 162.3896 0001551  63.7638 296.3648 13.10370337126321,13.10370337,0.0001551,LEO
51629,ONEWEB-0428,2022,109.89,148.0,+,87.9,Active,1,LEO,French Guiana,UK,Commercial,Communications,Soyuz,1 51629U 22012H   24265.47318272  .00000672  00000+0  18888-2 0  9992,2 51629  87.8980 162.3955 0001959  81.6672 278.4678 13.10375899126298,13.10375899,0.0001959,LEO
51630,ONEWEB-0431,2022,109.89,148.0,+,87.9,Active,1,LEO,French Guiana,UK,Commercial,Communications,Soyuz,1 51630U 22012J   24265.44315201 -.00000515  00000+0 -15117-2 0  9990,2 51630  87.8975 162.3921 0002362  85.2785 274.8612 13.10374181126348,13.10374181,0.0002362,LEO
51631,ONEWEB-0434,2022,109.89,148.0,+,87.9,Active,1,LEO,French Guiana,UK,Commercial,Communications,Soyuz,1 51631U 22012K   24265.42005654  .00000054  00000+0  11818-3 0  9998,2 51631  87.8980 162.4176 0001709  77.6104 282.5215 13.10370364127617,13.10370364,0.0001709,LEO
